{"type": "FeatureCollection", "features": [ {"type": "Feature", "properties": {"norad_id": 67031, "name": "STARLINK-36150", "group": "last-30-days", "lat": 2.552958601001414, "lon": 122.2102201573939, "alt_km": 327.58404899669586, "timestamp": "2025-12-22T23:36:19.413556+00:00", "meta": {"OBJECT_NAME": "STARLINK-36150", "OBJECT_ID": "2025-294B", "EPOCH": "2025-12-22T20:00:01.999008", "MEAN_MOTION": 15.81327575, "ECCENTRICITY": 0.0001455, "INCLINATION": 43.0001, "RA_OF_ASC_NODE": 120.3872, "ARG_OF_PERICENTER": 285.5257, "MEAN_ANOMALY": 302.3444, "EPHEMERIS_TYPE": 0, "CLASSIFICATION_TYPE": "U", "NORAD_CAT_ID": 67031, "ELEMENT_SET_NO": 999, "REV_AT_EPOCH": 192, "BSTAR": -0.010634, "MEAN_MOTION_DOT": -0.01893727, "MEAN_MOTION_DDOT": 0}, "tle": {"line1": "1 67031U 25294B   25356.83335647 -.01893727  00000+0 -10634-1 0  9992", "line2": "2 67031  43.0001 120.3872 0001455 285.5257 302.3444 15.81327575  1925"}}, "geometry": {"type": "Point", "coordinates": [122.2102201573939, 2.552958601001414]}}, {"type": "Feature", "properties": {"norad_id": 67032, "name": "STARLINK-36131", "group": "last-30-days", "lat": 5.414549402769793, "lon": 125.29494843024693, "alt_km": 327.4391688395044, "timestamp": "2025-12-22T23:36:19.413567+00:00", "meta": {"OBJECT_NAME": "STARLINK-36131", "OBJECT_ID": "2025-294C", "EPOCH": "2025-12-22T20:00:01.999008", "MEAN_MOTION": 15.81304019, "ECCENTRICITY": 0.0001422, "INCLINATION": 43.0002, "RA_OF_ASC_NODE": 120.3764, "ARG_OF_PERICENTER": 279.1535, "MEAN_ANOMALY": 312.9367, "EPHEMERIS_TYPE": 0, "CLASSIFICATION_TYPE": "U", "NORAD_CAT_ID": 67032, "ELEMENT_SET_NO": 999, "REV_AT_EPOCH": 173, "BSTAR": -0.010567, "MEAN_MOTION_DOT": -0.01881467, "MEAN_MOTION_DDOT": 0}, "tle": {"line1": "1 67032U 25294C   25356.83335647 -.01881467  00000+0 -10567-1 0  9996", "line2": "2 67032  43.0002 120.3764 0001422 279.1535 312.9367 15.81304019  1737"}}, "geometry": {"type": "Point", "coordinates": [125.29494843024693, 5.414549402769793]}}, {"type": "Feature", "properties": {"norad_id": 67033, "name": "STARLINK-36137", "group": "last-30-days", "lat": 3.9744539306623223, "lon": 123.73838966923216, "alt_km": 327.48484735330567, "timestamp": "2025-12-22T23:36:19.413576+00:00", "meta": {"OBJECT_NAME": "STARLINK-36137", "OBJECT_ID": "2025-294D", "EPOCH": "2025-12-22T20:00:01.999008", "MEAN_MOTION": 15.81316911, "ECCENTRICITY": 0.0001465, "INCLINATION": 43, "RA_OF_ASC_NODE": 120.3819, "ARG_OF_PERICENTER": 283.7821, "MEAN_ANOMALY": 306.1817, "EPHEMERIS_TYPE": 0, "CLASSIFICATION_TYPE": "U", "NORAD_CAT_ID": 67033, "ELEMENT_SET_NO": 999, "REV_AT_EPOCH": 173, "BSTAR": -0.010619, "MEAN_MOTION_DOT": -0.01890559, "MEAN_MOTION_DDOT": 0}, "tle": {"line1": "1 67033U 25294D   25356.83335647 -.01890559  00000+0 -10619-1 0  9997", "line2": "2 67033  43.0000 120.3819 0001465 283.7821 306.1817 15.81316911  1732"}}, "geometry": {"type": "Point", "coordinates": [123.73838966923216, 3.9744539306623223]}}, {"type": "Feature", "properties": {"norad_id": 67034, "name": "STARLINK-36140", "group": "last-30-days", "lat": 6.950467439913953, "lon": 126.96884473836172, "alt_km": 327.4339935843918, "timestamp": "2025-12-22T23:36:19.413586+00:00", "meta": {"OBJECT_NAME": "STARLINK-36140", "OBJECT_ID": "2025-294E", "EPOCH": "2025-12-22T14:00:01.999872", "MEAN_MOTION": 15.82364276, "ECCENTRICITY": 0.00016025, "INCLINATION": 42.9997, "RA_OF_ASC_NODE": 121.9033, "ARG_OF_PERICENTER": 269.9674, "MEAN_ANOMALY": 339.0039, "EPHEMERIS_TYPE": 0, "CLASSIFICATION_TYPE": "U", "NORAD_CAT_ID": 67034, "ELEMENT_SET_NO": 999, "REV_AT_EPOCH": 169, "BSTAR": -0.010361155, "MEAN_MOTION_DOT": -0.01932128, "MEAN_MOTION_DDOT": 0}, "tle": {"line1": "1 67034U 25294E   25356.58335648 -.01932128  00000+0 -10361-1 0  9994", "line2": "2 67034  42.9997 121.9033 0001602 269.9674 339.0039 15.82364276  1690"}}, "geometry": {"type": "Point", "coordinates": [126.96884473836172, 6.950467439913953]}}, {"type": "Feature", "properties": {"norad_id": 67035, "name": "STARLINK-36085", "group": "last-30-days", "lat": 10.02546515975224, "lon": 130.37632930170741, "alt_km": 327.0733633268337, "timestamp": "2025-12-22T23:36:19.413596+00:00", "meta": {"OBJECT_NAME": "STARLINK-36085", "OBJECT_ID": "2025-294F", "EPOCH": "2025-12-22T20:00:01.999008", "MEAN_MOTION": 15.81267012, "ECCENTRICITY": 0.0001558, "INCLINATION": 43.0001, "RA_OF_ASC_NODE": 120.3595, "ARG_OF_PERICENTER": 276.4302, "MEAN_ANOMALY": 322.5155, "EPHEMERIS_TYPE": 0, "CLASSIFICATION_TYPE": "U", "NORAD_CAT_ID": 67035, "ELEMENT_SET_NO": 999, "REV_AT_EPOCH": 173, "BSTAR": -0.010646, "MEAN_MOTION_DOT": -0.01890962, "MEAN_MOTION_DDOT": 0}, "tle": {"line1": "1 67035U 25294F   25356.83335647 -.01890962  00000+0 -10646-1 0  9997", "line2": "2 67035  43.0001 120.3595 0001558 276.4302 322.5155 15.81267012  1736"}}, "geometry": {"type": "Point", "coordinates": [130.37632930170741, 10.02546515975224]}}, {"type": "Feature", "properties": {"norad_id": 67036, "name": "STARLINK-36125", "group": "last-30-days", "lat": 8.487125678630516, "lon": 128.66072831620036, "alt_km": 327.11250077553905, "timestamp": "2025-12-22T23:36:19.413606+00:00", "meta": {"OBJECT_NAME": "STARLINK-36125", "OBJECT_ID": "2025-294G", "EPOCH": "2025-12-22T20:00:01.999008", "MEAN_MOTION": 15.81282057, "ECCENTRICITY": 0.0001468, "INCLINATION": 42.9999, "RA_OF_ASC_NODE": 120.3653, "ARG_OF_PERICENTER": 281.1557, "MEAN_ANOMALY": 315.4919, "EPHEMERIS_TYPE": 0, "CLASSIFICATION_TYPE": "U", "NORAD_CAT_ID": 67036, "ELEMENT_SET_NO": 999, "REV_AT_EPOCH": 192, "BSTAR": -0.010636, "MEAN_MOTION_DOT": -0.01890504, "MEAN_MOTION_DDOT": 0}, "tle": {"line1": "1 67036U 25294G   25356.83335647 -.01890504  00000+0 -10636-1 0  9999", "line2": "2 67036  42.9999 120.3653 0001468 281.1557 315.4919 15.81282057  1927"}}, "geometry": {"type": "Point", "coordinates": [128.66072831620036, 8.487125678630516]}}, {"type": "Feature", "properties": {"norad_id": 67037, "name": "STARLINK-35732", "group": "last-30-days", "lat": 11.638646908720117, "lon": 132.204422914128, "alt_km": 326.89284217423847, "timestamp": "2025-12-22T23:36:19.413615+00:00", "meta": {"OBJECT_NAME": "STARLINK-35732", "OBJECT_ID": "2025-294H", "EPOCH": "2025-12-22T20:00:01.999008", "MEAN_MOTION": 15.8125056, "ECCENTRICITY": 0.0001579, "INCLINATION": 42.9999, "RA_OF_ASC_NODE": 120.3536, "ARG_OF_PERICENTER": 278.2403, "MEAN_ANOMALY": 323.1311, "EPHEMERIS_TYPE": 0, "CLASSIFICATION_TYPE": "U", "NORAD_CAT_ID": 67037, "ELEMENT_SET_NO": 999, "REV_AT_EPOCH": 184, "BSTAR": -0.01067, "MEAN_MOTION_DOT": -0.01893379, "MEAN_MOTION_DDOT": 0}, "tle": {"line1": "1 67037U 25294H   25356.83335647 -.01893379  00000+0 -10670-1 0  9991", "line2": "2 67037  42.9999 120.3536 0001579 278.2403 323.1311 15.81250560  1845"}}, "geometry": {"type": "Point", "coordinates": [132.204422914128, 11.638646908720117]}}, {"type": "Feature", "properties": {"norad_id": 67038, "name": "STARLINK-35775", "group": "last-30-days", "lat": 13.049826717508779, "lon": 133.83122964984756, "alt_km": 326.7034132156241, "timestamp": "2025-12-22T23:36:19.413627+00:00", "meta": {"OBJECT_NAME": "STARLINK-35775", "OBJECT_ID": "2025-294J", "EPOCH": "2025-12-22T20:00:01.999008", "MEAN_MOTION": 15.81236907, "ECCENTRICITY": 0.0001385, "INCLINATION": 43.0001, "RA_OF_ASC_NODE": 120.3477, "ARG_OF_PERICENTER": 279.5206, "MEAN_ANOMALY": 323.9884, "EPHEMERIS_TYPE": 0, "CLASSIFICATION_TYPE": "U", "NORAD_CAT_ID": 67038, "ELEMENT_SET_NO": 999, "REV_AT_EPOCH": 184, "BSTAR": -0.010648, "MEAN_MOTION_DOT": -0.01888772, "MEAN_MOTION_DDOT": 0}, "tle": {"line1": "1 67038U 25294J   25356.83335647 -.01888772  00000+0 -10648-1 0  9998", "line2": "2 67038  43.0001 120.3477 0001385 279.5206 323.9884 15.81236907  1848"}}, "geometry": {"type": "Point", "coordinates": [133.83122964984756, 13.049826717508779]}}, {"type": "Feature", "properties": {"norad_id": 67039, "name": "STARLINK-35705", "group": "last-30-days", "lat": 15.913318627651709, "lon": 137.23383677936138, "alt_km": 326.41745122785323, "timestamp": "2025-12-22T23:36:19.413636+00:00", "meta": {"OBJECT_NAME": "STARLINK-35705", "OBJECT_ID": "2025-294K", "EPOCH": "2025-12-22T20:00:01.999008", "MEAN_MOTION": 15.81217516, "ECCENTRICITY": 0.0001413, "INCLINATION": 43.0001, "RA_OF_ASC_NODE": 120.337, "ARG_OF_PERICENTER": 278.2854, "MEAN_ANOMALY": 329.6035, "EPHEMERIS_TYPE": 0, "CLASSIFICATION_TYPE": "U", "NORAD_CAT_ID": 67039, "ELEMENT_SET_NO": 999, "REV_AT_EPOCH": 173, "BSTAR": -0.010641, "MEAN_MOTION_DOT": -0.0188626, "MEAN_MOTION_DDOT": 0}, "tle": {"line1": "1 67039U 25294K   25356.83335647 -.01886260  00000+0 -10641-1 0  9992", "line2": "2 67039  43.0001 120.3370 0001413 278.2854 329.6035 15.81217516  1732"}}, "geometry": {"type": "Point", "coordinates": [137.23383677936138, 15.913318627651709]}}, {"type": "Feature", "properties": {"norad_id": 67040, "name": "STARLINK-35786", "group": "last-30-days", "lat": 14.542655944451939, "lon": 135.5870262939189, "alt_km": 326.493655634521, "timestamp": "2025-12-22T23:36:19.413648+00:00", "meta": {"OBJECT_NAME": "STARLINK-35786", "OBJECT_ID": "2025-294L", "EPOCH": "2025-12-22T20:00:01.999008", "MEAN_MOTION": 15.81226423, "ECCENTRICITY": 0.0001457, "INCLINATION": 43.0003, "RA_OF_ASC_NODE": 120.3425, "ARG_OF_PERICENTER": 282.7639, "MEAN_ANOMALY": 323.0188, "EPHEMERIS_TYPE": 0, "CLASSIFICATION_TYPE": "U", "NORAD_CAT_ID": 67040, "ELEMENT_SET_NO": 999, "REV_AT_EPOCH": 173, "BSTAR": -0.010669, "MEAN_MOTION_DOT": -0.01891299, "MEAN_MOTION_DDOT": 0}, "tle": {"line1": "1 67040U 25294L   25356.83335647 -.01891299  00000+0 -10669-1 0  9992", "line2": "2 67040  43.0003 120.3425 0001457 282.7639 323.0188 15.81226423  1730"}}, "geometry": {"type": "Point", "coordinates": [135.5870262939189, 14.542655944451939]}}]}